[{"OBJECT_NAME":"STARLINK-31553","OBJECT_ID":"2024-060R","EPOCH":"2026-03-09T13:37:49.479456","MEAN_MOTION":15.27570853,"ECCENTRICITY":0.0001887,"INCLINATION":43.0043,"RA_OF_ASC_NODE":253.6587,"ARG_OF_PERICENTER":285.2179,"MEAN_ANOMALY":74.8464,"EPHEMERIS_TYPE":0,"CLASSIFICATION_TYPE":"U","NORAD_CAT_ID":59363,"ELEMENT_SET_NO":999,"REV_AT_EPOCH":11012,"BSTAR":1.2696e-5,"MEAN_MOTION_DOT":8.7e-7,"MEAN_MOTION_DDOT":0},{"OBJECT_NAME":"DMSP 5D-2 F13 DEB","OBJECT_ID":"1995-015HL","EPOCH":"2026-02-09T02:06:19.247328","MEAN_MOTION":15.12822218,"ECCENTRICITY":0.00117732,"INCLINATION":98.8603,"RA_OF_ASC_NODE":96.8879,"ARG_OF_PERICENTER":223.037,"MEAN_ANOMALY":136.9936,"EPHEMERIS_TYPE":0,"CLASSIFICATION_TYPE":"U","NORAD_CAT_ID":42294,"ELEMENT_SET_NO":999,"REV_AT_EPOCH":55633,"BSTAR":0.010466292,"MEAN_MOTION_DOT":0.00188804,"MEAN_MOTION_DDOT":0}]
